STARLINK-30582          
1 58059U 23158J   26068.94721153  .00091219  00000+0  33060-2 0  9995
2 58059  43.0027  25.2286 0001167 260.4378  99.6342 15.27356294133616
TRANSPORTER-10 OBJECT AG
1 59128U 24043AG  26068.92552531  .00009498  00000+0  32170-3 0  9997
2 59128  97.5471 205.7101 0009300 226.5958 133.4509 15.30759727111920
